sat43314
1 43314U 85094Y   20046.60473349  .00000245  00000-0  10692-2 0  9990
2 43314  82.5576 117.5407 0036096 216.1842 143.6815 12.76929532786581
